OBJECT_NAME,OBJECT_ID,EPOCH,MEAN_MOTION,ECCENTRICITY,INCLINATION,RA_OF_ASC_NODE,ARG_OF_PERICENTER,MEAN_ANOMALY,EPHEMERIS_TYPE,CLASSIFICATION_TYPE,NORAD_CAT_ID,ELEMENT_SET_NO,REV_AT_EPOCH,BSTAR,MEAN_MOTION_DOT,MEAN_MOTION_DDOT
DUCHIFAT-1,2014-033M,2026-06-06T15:41:32.123328,15.62532065,.00045265,98.0457,215.3530,133.6949,226.4683,0,U,40021,999,65410,.11800985E-2,.106168E-2,0
NANOSATC-BR1,2014-033Q,2026-06-07T00:16:35.505984,15.31132519,.00033158,98.0731,189.5002,192.3150,167.8008,0,U,40024,999,65242,.63921274E-3,.19168E-3,0
QB50P1,2014-033R,2026-06-07T06:19:40.705248,15.18108574,.00070816,98.0971,168.7150,255.6784,104.3662,0,U,40025,999,65152,.43536234E-3,.8812E-4,0
DTUSAT-2,2014-033W,2026-06-07T06:20:42.904608,15.14891810,.00061499,98.0871,155.3626,267.8687,92.1839,0,U,40030,999,65118,.43565831E-3,.8042E-4,0
QB50P2,2014-033Y,2026-06-07T06:13:47.619552,15.15032533,.00069548,98.0757,154.5231,196.1630,163.9380,0,U,40032,999,65116,.42838425E-3,.7939E-4,0
PERSEUS-M1,2014-033AF,2026-06-06T15:59:16.611072,14.95601690,.00108608,97.9642,101.6258,341.2925,18.7895,0,U,40039,999,64906,.25013004E-3,.2719E-4,0
POLYITAN-1,2014-033AJ,2026-06-06T20:53:05.003520,15.32894505,.00078354,98.0951,183.1584,171.6009,188.5364,0,U,40042,999,65201,.66512724E-3,.21098E-3,0
TIGRISAT,2014-033AK,2026-06-07T03:27:53.795232,14.85122342,.00506972,97.7825,308.3873,107.2671,253.4101,0,U,40043,999,64413,.28443307E-3,.2435E-4,0
AISAT,2014-034B,2026-06-07T00:23:29.221152,15.08635345,.00072835,98.2393,69.6833,253.6523,106.3903,0,U,40054,999,64567,.75256781E-3,.11726E-3,0
CANX-4,2014-034C,2026-06-06T22:50:27.400128,14.81245872,.00138071,98.3134,32.8885,48.0751,312.1635,0,U,40055,999,64301,.13745349E-3,.1015E-4,0
CANX-5,2014-034D,2026-06-06T21:11:05.902944,14.81262857,.00138058,98.3137,32.8600,48.4720,311.7673,0,U,40056,999,63381,.13859388E-3,.1024E-4,0
VELOX-I,2014-034E,2026-06-07T07:19:10.725600,14.97800936,.00064308,98.2555,62.7487,318.6874,41.3859,0,U,40057,999,64512,.44312643E-3,.5143E-4,0
GONETS-M 10,2014-036C,2026-06-07T06:00:21.678624,12.42945509,.00222443,82.5112,313.8477,161.5861,198.6029,0,U,40063,999,54101,.58098767E-3,.91E-6,0
METEOR-M 2,2014-037A,2026-06-07T05:17:39.770880,14.21457555,.000704,98.5115,134.3126,68.4578,291.7350,0,U,40069,999,61790,-.47014243E-4,-.145E-5,0
DX1,2014-037C,2026-06-07T05:18:03.009888,14.89954176,.00062746,98.3867,119.3189,314.6734,45.3970,0,U,40071,999,64462,.19260121E-3,.1793E-4,0
UKUBE-1,2014-037F,2026-06-07T06:01:40.341504,15.13394212,.0002055,98.4243,160.4805,144.3417,215.7950,0,U,40074,999,64705,.47747101E-3,.8449E-4,0
GAOFEN-2,2014-049A,2026-06-07T05:51:10.502784,14.80887096,.00058682,98.0107,222.4604,267.1669,92.8871,0,U,40118,999,63776,.36917119E-4,.232E-5,0
BRITE-PL2 (HEWELIUSZ),2014-049B,2026-06-06T04:37:17.262624,14.94554868,.00150514,97.9087,269.1089,141.6770,218.5523,0,U,40119,999,63980,.30174932E-3,.321E-4,0
CBERS 4,2014-079A,2026-06-07T06:41:39.698016,14.35506352,.00020467,98.3530,215.4210,72.8465,287.2945,0,U,40336,999,60253,.35720007E-4,.61E-6,0
SMAP,2015-003A,2026-06-06T21:24:10.383840,14.63357522,.00012568,98.1276,165.1322,92.7506,267.3840,0,U,40376,999,60611,.97370583E-4,.456E-5,0
GONETS-M 11,2015-020A,2026-06-07T06:26:08.961792,12.42876968,.00170353,82.4873,37.1726,26.5439,333.6510,0,U,40552,999,50750,.45484081E-3,.73E-6,0
GONETS-M 12,2015-020B,2026-06-07T05:48:08.068320,12.42891130,.00158104,82.4907,38.3101,12.1817,347.9642,0,U,40553,999,50749,.42779521E-3,.69E-6,0
GONETS-M 13,2015-020C,2026-06-07T05:09:42.388416,12.42870148,.00141432,82.4869,36.9449,358.0002,2.1019,0,U,40554,999,50746,.48575581E-3,.77E-6,0
DMC3-FM1,2015-032A,2026-06-07T05:42:27.318816,14.85726227,.00071323,97.6468,23.8021,84.8935,275.3094,0,U,40715,999,58843,.68682644E-4,.545E-5,0
DMC3-FM2,2015-032B,2026-06-07T06:14:15.752256,14.85734206,.00076994,97.6524,25.3905,90.0011,270.2087,0,U,40716,999,58843,.13687333E-3,.1137E-4,0
DMC3-FM3,2015-032C,2026-06-07T06:47:45.067200,14.85723524,.00068991,97.6576,27.1599,88.7563,271.4443,0,U,40717,999,58844,.86784536E-4,.702E-5,0
CARBONITE 1 (CBNT-1),2015-032D,2026-06-07T06:25:47.750592,14.83558696,.00138374,97.6509,336.7502,333.3099,26.7402,0,U,40718,999,58787,.26388832E-3,.2126E-4,0
DEORBITSAIL,2015-032E,2026-06-06T20:14:45.120192,15.03714714,.00109617,97.5901,14.8689,270.6324,89.3646,0,U,40719,999,58969,.60361856E-3,.8231E-4,0
2015-049G,2015-049G,2026-06-07T05:00:33.797664,15.65659691,.00040362,97.4559,201.6875,228.2694,131.8220,0,U,40905,999,59488,.43869983E-3,.44208E-3,0
LILACSAT-2,2015-049K,2026-06-07T06:34:33.568032,15.51117189,.0005304,97.4658,194.7406,293.2449,66.8244,0,U,40908,999,59421,.30516732E-3,.17716E-3,0
