0 LILACSAT 2
1 40908U 15049K   26158.27399963  .00017716  00000-0  30517-3 0  9991
2 40908  97.4658 194.7406 0005304 293.2449  66.8244 15.51117189594218
0 VELOX 1
1 40057U 14034E   26158.30498525  .00005143  00000-0  44313-3 0  9997
2 40057  98.2555  62.7487 0006431 318.6874  41.3859 14.97800936645122
0 CANX-4
1 40055U 14034C   26157.95170602  .00001015  00000-0  13745-3 0  9997
2 40055  98.3134  32.8885 0013807  48.0751 312.1635 14.81245872643019
0 AISAT
1 40054U 14034B   26158.01631043  .00011726  00000-0  75257-3 0  9991
2 40054  98.2393  69.6833 0007284 253.6523 106.3903 15.08635345645671
0 TIGRISAT
1 40043U 14033AK  26158.14437263  .00002435  00000-0  28443-3 0  9992
2 40043  97.7825 308.3873 0050697 107.2671 253.4101 14.85122342644130
0 NANOSAT C BR1
1 40024U 14033Q   26158.01152206  .00019168  00000-0  63921-3 0  9999
2 40024  98.0731 189.5002 0003316 192.3150 167.8008 15.31132519652429
0 UKUBE 1
1 40074U 14037F   26158.25116136  .00008449  00000-0  47747-3 0  9994
2 40074  98.4243 160.4805 0002055 144.3417 215.7950 15.13394212647059
POLYITAN-1
1 40042U 14033AJ  26157.87019680  .00021098  00000-0  66513-3 0  9995
2 40042  98.0951 183.1584 0007835 171.6009 188.5364 15.32894505652012
0 QB50P1
1 40025U 14033R   26158.26366557  .00008812  00000-0  43536-3 0  9997
2 40025  98.0971 168.7150 0007082 255.6784 104.3662 15.18108574651520
0 QB50P2
1 40032U 14033Y   26158.25957893  .00007939  00000-0  42838-3 0  9996
2 40032  98.0757 154.5231 0006955 196.1630 163.9380 15.15032533651166
0 DTUSAT 2
1 40030U 14033W   26158.26438547  .00008042  00000-0  43566-3 0  9990
2 40030  98.0871 155.3626 0006150 267.8687  92.1839 15.14891810651187
DUCHIFAT-1
1 40021U 14033M   26157.65384402  .00106168  00000-0  11801-2 0  9996
2 40021  98.0457 215.3530 0004527 133.6949 226.4683 15.62532065654106
0 CANX-5
1 40056U 14034D   26157.88270721  .00001024  00000-0  13859-3 0  9999
2 40056  98.3137  32.8600 0013806  48.4720 311.7673 14.81262857633813
0 DX 1
1 40071U 14037C   26158.22086817  .00001793  00000-0  19260-3 0  9994
2 40071  98.3867 119.3189 0006275 314.6734  45.3970 14.89954176644629
0 METEOR M2
1 40069U 14037A   26158.22059920 -.00000145  00000-0 -47014-4 0  9997
2 40069  98.5115 134.3126 0007040  68.4578 291.7350 14.21457555617908
DEORBITSAIL
1 40719U 15032E   26157.84357778  .00008231  00000-0  60362-3 0  9996
2 40719  97.5901  14.8689 0010962 270.6324  89.3646 15.03714714589698
0 OBJECT G
1 40905U 15049G   26158.20872451  .00044208  00000-0  43870-3 0  9991
2 40905  97.4559 201.6875 0004036 228.2694 131.8220 15.65659691594888
0 PERSEUS M1
1 40039U 14033AF  26157.66616448  .00002719  00000-0  25013-3 0  9992
2 40039  97.9642 101.6258 0010861 341.2925  18.7895 14.95601690649064
0 SMAP
1 40376U 15003A   26157.89178685  .00000456  00000-0  97371-4 0  9998
2 40376  98.1276 165.1322 0001257  92.7506 267.3840 14.63357522606111
0 BRITE-PL 2
1 40119U 14049B   26157.19256091  .00003210  00000-0  30175-3 0  9992
2 40119  97.9087 269.1089 0015051 141.6770 218.5523 14.94554868639806
0 DMC 3-FM1
1 40715U 15032A   26158.23781619  .00000545  00000-0  68683-4 0  9996
2 40715  97.6468  23.8021 0007132  84.8935 275.3094 14.85726227588437
0 DMC 3-FM2
1 40716U 15032B   26158.25990454  .00001137  00000-0  13687-3 0  9999
2 40716  97.6524  25.3905 0007699  90.0011 270.2087 14.85734206588433
0 DMC 3-FM3
1 40717U 15032C   26158.28316050  .00000702  00000-0  86785-4 0  9994
2 40717  97.6576  27.1599 0006899  88.7563 271.4443 14.85723524588448
0 CARBONITE 1
1 40718U 15032D   26158.26791378  .00002126  00000-0  26389-3 0  9998
2 40718  97.6509 336.7502 0013837 333.3099  26.7402 14.83558696587877
0 CBERS-4
1 40336U 14079A   26158.27893169  .00000061  00000-0  35720-4 0  9992
2 40336  98.3530 215.4210 0002047  72.8465 287.2945 14.35506352602533
0 GONETS M 10 (M20)
1 40063U 14036C   26158.25025091  .00000091  00000-0  58099-3 0  9997
2 40063  82.5112 313.8477 0022244 161.5861 198.6029 12.42945509541016
0 GONETS M 11 (M21)
1 40552U 15020A   26158.26815928  .00000073  00000-0  45484-3 0  9995
2 40552  82.4873  37.1726 0017035  26.5439 333.6510 12.42876968507502
0 GONETS M 12 (M22)
1 40553U 15020B   26158.24176005  .00000069  00000-0  42780-3 0  9991
2 40553  82.4907  38.3101 0015810  12.1817 347.9642 12.42891130507491
0 GONETS M 13 (M23)
1 40554U 15020C   26158.21507394  .00000077  00000-0  48576-3 0  9996
2 40554  82.4869  36.9449 0014143 358.0002   2.1019 12.42870148507465
0 GAOFEN 2
1 40118U 14049A   26158.24387156  .00000232  00000-0  36917-4 0  9997
2 40118  98.0107 222.4604 0005868 267.1669  92.8871 14.80887096637760
